LEMUR-2-VALHALLA        
1 58900U 24022B   26188.02345244  .00011733  00000+0  29263-3 0  9990
2 58900  97.4094  38.2595 0010016  51.0671 309.1466 15.40309483135327
LEMUR-2-CAEL            
1 58903U 24022E   26188.08115866  .00013015  00000+0  31040-3 0  9995
2 58903  97.4077  39.2893 0007979  37.3970 322.7831 15.41661151135406
LEMUR-2-JOHNNYTRUONG    
1 59146U 24043BA  26188.40390913  .00033713  00000+0  38549-3 0  9990
2 59146  97.5392 341.3839 0004359 116.1044 244.0662 15.62091018131193
LEMUR-2-TOMATOKECHUP    
1 60471U 24149D   26187.71347409  .00008991  00000+0  25500-3 0  9998
2 60471  97.3789 269.8148 0002908 137.9028 222.2440 15.36460405105163
LEMUR-2-STELLA          
1 60533U 24149BT  26188.46472914  .00007196  00000+0  41983-3 0  9999
2 60533  97.6725 271.0135 0001081 110.4219 249.7127 15.12261782103564
LEMUR-2-MARHISYAM       
1 60536U 24149BW  26188.18785466  .00008016  00000+0  47483-3 0  9993
2 60536  97.6871 271.2045 0002783  81.1160 279.0384 15.11670752103505
LEMUR-2-AHMED-ASRAR     
1 60576U 24149DN  26188.20241426  .00008163  00000+0  46359-3 0  9997
2 60576  97.6994 273.3904 0000574 259.3398 100.7767 15.13187548103592
LEMUR-2-LLOYD           
1 60577U 24149DP  26188.46016495  .00006420  00000+0  40278-3 0  9990
2 60577  97.6734 269.6046 0004910  90.2019 269.9772 15.09650711103451
LEMUR-2-SQUIRRELCOMM    
1 60578U 24149DQ  26188.17155730  .00004800  00000+0  32133-3 0  9996
2 60578  97.6704 269.0219 0004831 356.7461   3.3734 15.07390844103418
LEMUR-2-SIERRINI        
1 60579U 24149DR  26188.48013270  .00006996  00000+0  41789-3 0  9998
2 60579  97.6835 271.1672 0006611 110.2503 249.9438 15.11403308103525
LEMUR-2-WILSON          
1 62694U 25009CP  26188.17155792  .00002497  00000+0  23207-3 0  9993
2 62694  97.7021 266.2859 0002599   5.7645 354.3605 14.95258050 80345
LEMUR-2-STAR-FOX        
1 62696U 25009CR  26187.60415116  .00005629  00000+0  42526-3 0  9996
2 62696  97.6928 269.0749 0003481  70.9430 289.2172 15.02774699 80478
LEMUR-2-ARIANNA         
1 62699U 25009CU  26187.20310691  .00007087  00000+0  53415-3 0  9996
2 62699  97.6866 268.4362 0003872  76.7600 283.4057 15.02770802 80417
LEMUR-2-ALISIA          
1 62706U 25009DB  26188.04282409  .00006452  00000+0  48274-3 0  9995
2 62706  97.6951 270.0782 0003408 155.6076 204.5311 15.03089428103146
LEMUR-2-ROUNDTRIPPER    
1 62711U 25009DG  26188.18676830  .00006648  00000+0  48362-3 0  9996
2 62711  97.7223 270.8397 0004458  82.7690 277.4043 15.04138808 80630
LEMUR-2-MYNAMEISJEFF    
1 62712U 25009DH  26188.18521056  .00006692  00000+0  48688-3 0  9996
2 62712  97.7276 271.2311 0003603 116.4406 243.7189 15.04131043 80632
